NORAD_CAT_ID,OBJECT_NAME,OBJECT_TYPE,EPOCH,MEAN_MOTION,ECCENTRICITY,INCLINATION,RA_OF_ASC_NODE,ARG_OF_PERICENTER,MEAN_ANOMALY,BSTAR,MEAN_MOTION_DOT,MEAN_MOTION_DDOT,TLE_LINE0,TLE_LINE1,TLE_LINE2,SEMIMAJOR_AXIS,PERIOD,APOGEE,PERIGEE,DECAYED
52601.0,STARLINK-4027,PAYLOAD,2022-09-17 07:24:00,15.08835665,0.0001806,53.2175,217.585,47.7095,312.405,-4.4995e-05,-1.004e-05,0.0,0 STARLINK-4027,1 52601U 22052D   22260.30834097 -.00001004  00000-0 -44995-4 0  9993,2 52601  53.2175 217.5850 0001806  47.7095 312.4050 15.08835665 20020,6917.894,95.438,541.008,538.509,0.0
52601.0,STARLINK-4027,PAYLOAD,2022-09-17 21:42:28,15.08846449,0.0001644,53.2173,214.909,49.9363,310.1774,-0.00013864,-2.494e-05,0.0,0 STARLINK-4027,1 52601U 22052D   22260.90449965 -.00002494  00000-0 -13864-3 0  9999,2 52601  53.2173 214.9090 0001644  49.9363 310.1774 15.08846449 20117,6917.861,95.437,540.863,538.5880000000002,0.0
52601.0,STARLINK-4027,PAYLOAD,2022-09-18 07:14:48,15.08822125,0.0001653,53.2174,213.1249,53.1557,306.9586,6.6782e-05,7.74e-06,0.0,0 STARLINK-4027,1 52601U 22052D   22261.30195100  .00000774  00000-0  66782-4 0  9998,2 52601  53.2174 213.1249 0001653  53.1557 306.9586 15.08822125 19743,6917.935,95.439,540.944,538.656,0.0
52601.0,STARLINK-4027,PAYLOAD,2022-09-18 16:47:07,15.08832673,0.0001742,53.2184,211.3411,46.1313,313.9823,4.6952e-05,4.59e-06,0.0,0 STARLINK-4027,1 52601U 22052D   22261.69938683  .00000459  00000-0  46952-4 0  9998,2 52601  53.2184 211.3411 0001742  46.1313 313.9823 15.08832673 20233,6917.903,95.438,540.9730000000002,538.563,0.0
52601.0,STARLINK-4027,PAYLOAD,2022-09-19 03:54:47,15.08878278,0.0001823,53.2173,209.2593,44.3666,315.7472,-0.0003418,-5.73e-05,0.0,0 STARLINK-4027,1 52601U 22052D   22262.16305127 -.00005730  00000-0 -34180-3 0  9990,2 52601  53.2173 209.2593 0001823  44.3666 315.7472 15.08878278 20308,6917.763000000001,95.435,540.889,538.367,0.0
52601.0,STARLINK-4027,PAYLOAD,2022-09-19 22:59:25,15.08869393,0.0002068,53.2172,205.6912,54.8537,305.2648,-0.00036776,-6.141e-05,0.0,0 STARLINK-4027,1 52601U 22052D   22262.95793545 -.00006141  00000-0 -36776-3 0  9992,2 52601  53.2172 205.6912 0002068  54.8537 305.2648 15.08869393 19997,6917.791,95.436,541.086,538.225,0.0
52601.0,STARLINK-4027,PAYLOAD,2022-09-20 05:20:58,15.08843652,0.0001861,53.217,204.5032,48.765,311.3502,0.00015299,2.148e-05,0.0,0 STARLINK-4027,1 52601U 22052D   22263.22289918  .00002148  00000-0  15299-3 0  9995,2 52601  53.2170 204.5032 0001861  48.7650 311.3502 15.08843652 20038,6917.869000000002,95.437,541.0219999999998,538.447,0.0
52601.0,STARLINK-4027,PAYLOAD,2022-09-20 13:17:54,15.08835925,0.0001459,53.2175,203.016,51.1215,308.9907,5.9545e-05,6.6e-06,0.0,0 STARLINK-4027,1 52601U 22052D   22263.55410520  .00000660  00000-0  59545-4 0  9996,2 52601  53.2175 203.0160 0001459  51.1215 308.9907 15.08835925 20087,6917.893,95.438,540.7669999999998,538.749,0.0
52601.0,STARLINK-4027,PAYLOAD,2022-09-21 14:44:05,15.08836228,0.000242,53.2191,198.2568,35.4028,324.7124,-2.2799e-05,-6.51e-06,0.0,0 STARLINK-4027,1 52601U 22052D   22264.61394990 -.00000651  00000-0 -22799-4 0  9999,2 52601  53.2191 198.2568 0002420  35.4028 324.7124 15.08836228 20240,6917.892,95.438,541.431,538.0830000000002,0.0
52601.0,STARLINK-4027,PAYLOAD,2022-09-21 21:05:37,15.08845346,0.0002144,53.2169,197.0698,42.8682,317.2477,9.2113e-06,-1.42e-06,0.0,0 STARLINK-4027,1 52601U 22052D   22264.87890263 -.00000142  00000-0  92113-5 0  9993,2 52601  53.2169 197.0698 0002144  42.8682 317.2477 15.08845346 20280,6917.864000000001,95.437,541.212,538.246,0.0
52601.0,STARLINK-4027,PAYLOAD,2022-09-22 12:59:28,15.08838377,0.0001816,53.2169,194.0959,44.5454,315.5684,5.127e-05,5.28e-06,0.0,0 STARLINK-4027,1 52601U 22052D   22265.54130393  .00000528  00000-0  51270-4 0  9994,2 52601  53.2169 194.0959 0001816  44.5454 315.5684 15.08838377 20814,6917.885,95.438,541.007,538.494,0.0
52601.0,STARLINK-4027,PAYLOAD,2022-09-22 20:56:24,15.08840556,0.0001914,53.2165,192.6087,48.673,311.4426,4.4349e-05,4.18e-06,0.0,0 STARLINK-4027,1 52601U 22052D   22265.87250365  .00000418  00000-0  44349-4 0  9999,2 52601  53.2165 192.6087 0001914  48.6730 311.4426 15.08840556 20863,6917.879,95.438,541.068,538.42,0.0
52601.0,STARLINK-4027,PAYLOAD,2022-09-23 01:42:33,15.08835255,0.0001757,53.2171,191.716,50.5323,309.5825,9.1546e-05,1.169e-05,0.0,0 STARLINK-4027,1 52601U 22052D   22266.07122512  .00001169  00000-0  91546-4 0  9999,2 52601  53.2171 191.7160 0001757  50.5323 309.5825 15.08835255 20891,6917.895,95.438,540.975,538.544,0.0
52601.0,STARLINK-4027,PAYLOAD,2022-09-23 23:57:58,15.08833665,0.0001786999999999,53.217,187.5529,51.6709,308.4443,-2.2274e-05,-6.43e-06,0.0,0 STARLINK-4027,1 52601U 22052D   22266.99859311 -.00000643  00000-0 -22274-4 0  9994,2 52601  53.2170 187.5529 0001787  51.6709 308.4443 15.08833665 21039,6917.9,95.438,541.001,538.529,0.0
52601.0,STARLINK-4027,PAYLOAD,2022-09-25 04:34:54,15.08840857,0.000182,53.2173,182.1997,48.8229,311.2919,7.002e-05,8.26e-06,0.0,0 STARLINK-4027,1 52601U 22052D   22268.19090280  .00000826  00000-0  70020-4 0  9993,2 52601  53.2173 182.1997 0001820  48.8229 311.2919 15.08840857 20787,6917.878000000002,95.438,541.002,538.484,0.0
52601.0,STARLINK-4027,PAYLOAD,2022-09-26 01:14:55,15.08835182,0.0001792,53.2176,178.3336,48.1664,311.9481,-4.561e-05,-1.014e-05,0.0,0 STARLINK-4027,1 52601U 22052D   22269.05203571 -.00001014  00000-0 -45610-4 0  9997,2 52601  53.2176 178.3336 0001792  48.1664 311.9481 15.08835182 20919,6917.895,95.438,541.0,538.52,0.0
52601.0,STARLINK-4027,PAYLOAD,2022-09-26 10:47:14,15.08839264,0.0001846,53.2178,176.5495,47.9503,312.1646,-1.8831e-05,-5.88e-06,0.0,0 STARLINK-4027,1 52601U 22052D   22269.44947304 -.00000588  00000-0 -18831-4 0  9999,2 52601  53.2178 176.5495 0001846  47.9503 312.1646 15.08839264 21402,6917.8830000000025,95.438,541.025,538.471,0.0
52601.0,STARLINK-4027,PAYLOAD,2022-09-27 01:05:43,15.0883264,0.0001894,53.218,173.8731,48.6631,311.4524,-7.7305e-05,-1.518e-05,0.0,0 STARLINK-4027,1 52601U 22052D   22270.04564109 -.00001518  00000-0 -77305-4 0  9990,2 52601  53.2180 173.8731 0001894  48.6631 311.4524 15.08832640 21498,6917.903,95.438,541.078,538.4580000000002,0.0
52601.0,STARLINK-4027,PAYLOAD,2022-09-28 00:56:29,15.08845813,0.000269,53.2187,169.4131,43.0808,317.0394,0.00018499,2.657e-05,0.0,0 STARLINK-4027,1 52601U 22052D   22271.03922965  .00002657  00000-0  18499-3 0  9999,2 52601  53.2187 169.4131 0002690  43.0808 317.0394 15.08845813 21213,6917.863,95.437,541.589,537.867,0.0
52601.0,STARLINK-4027,PAYLOAD,2022-09-28 07:18:00,15.088587300000002,0.0001874,53.2177,168.2231,50.4793,309.6365,0.00030134,4.513e-05,0.0,0 STARLINK-4027,1 52601U 22052D   22271.30417605  .00004513  00000-0  30134-3 0  9992,2 52601  53.2177 168.2231 0001874  50.4793 309.6365 15.08858730 21259,6917.823,95.436,540.985,538.3919999999998,0.0
52601.0,STARLINK-4027,PAYLOAD,2022-09-29 02:22:39,15.08835595,0.0001587,53.2155,164.6556,54.7901,305.324,-8.0102e-05,-1.562e-05,0.0,0 STARLINK-4027,1 52601U 22052D   22272.09907003 -.00001562  00000-0 -80102-4 0  9999,2 52601  53.2155 164.6556 0001587  54.7901 305.3240 15.08835595 21376,6917.894,95.438,540.857,538.661,0.0
52601.0,STARLINK-4027,PAYLOAD,2022-09-29 10:19:35,15.08824558,0.0001544,53.2155,163.1674,58.799,301.3153,-0.00018226,-3.186e-05,0.0,0 STARLINK-4027,1 52601U 22052D   22272.43027759 -.00003186  00000-0 -18226-3 0  9999,2 52601  53.2155 163.1674 0001544  58.7990 301.3153 15.08824558 21428,6917.928000000001,95.439,540.861,538.724,0.0
52601.0,STARLINK-4027,PAYLOAD,2022-09-29 19:51:54,15.08833643,0.0001685,53.2172,161.382,54.6832,305.4317,-0.00024379,-4.165e-05,0.0,0 STARLINK-4027,1 52601U 22052D   22272.82771613 -.00004165  00000-0 -24379-3 0  9991,2 52601  53.2172 161.3820 0001685  54.6832 305.4317 15.08833643 21912,6917.9,95.438,540.93,538.599,0.0
52601.0,STARLINK-4027,PAYLOAD,2022-09-29 23:02:40,15.08834611,0.0001610999999999,53.2169,160.7885,51.9116,308.2022,-0.00019322,-3.361e-05,0.0,0 STARLINK-4027,1 52601U 22052D   22272.96019621 -.00003361  00000-0 -19322-3 0  9999,2 52601  53.2169 160.7885 0001611  51.9116 308.2022 15.08834611 21501,6917.897,95.438,540.876,538.6469999999998,0.0
52601.0,STARLINK-4027,PAYLOAD,2022-09-30 11:45:46,15.08841293,0.0001406999999999,53.2155,158.4123,56.3683,303.7444,0.00029934,4.479e-05,0.0,0 STARLINK-4027,1 52601U 22052D   22273.49011657  .00004479  00000-0  29934-3 0  9998,2 52601  53.2155 158.4123 0001407  56.3683 303.7444 15.08841293 22015,6917.876,95.437,540.715,538.768,0.0
52601.0,STARLINK-4027,PAYLOAD,2022-09-30 18:07:18,15.08850762,0.0001743,53.2153,157.2224,49.236,310.8784,0.00074748,0.00011632,0.0,0 STARLINK-4027,1 52601U 22052D   22273.75507808  .00011632  00000-0  74748-3 0  9997,2 52601  53.2153 157.2224 0001743  49.2360 310.8784 15.08850762 22059,6917.847,95.437,540.918,538.507,0.0
52601.0,STARLINK-4027,PAYLOAD,2022-09-30 22:53:28,15.08864871,0.0001776,53.2152,156.3308,47.3556,312.7586,0.0013720999999999,0.00021631,0.0,0 STARLINK-4027,1 52601U 22052D   22273.95379726  .00021631  00000-0  13721-2 0  9998,2 52601  53.2152 156.3308 0001776  47.3556 312.7586 15.08864871 21655,6917.804,95.436,540.898,538.441,0.0
52601.0,STARLINK-4027,PAYLOAD,2022-10-01 11:36:32,15.08859982,0.0001851,53.2142,153.9493,55.8482,304.2686,0.00027244,4.053e-05,0.0,0 STARLINK-4027,1 52601U 22052D   22274.48371260  .00004053  00000-0  27244-3 0  9997,2 52601  53.2142 153.9493 0001851  55.8482 304.2686 15.08859982 22169,6917.819,95.436,540.965,538.404,0.0
52601.0,STARLINK-4027,PAYLOAD,2022-10-01 19:33:28,15.088530300000002,0.0001844999999999,53.2154,152.4649,48.113,312.002,0.00029348,4.387e-05,0.0,0 STARLINK-4027,1 52601U 22052D   22274.81491212  .00004387  00000-0  29348-3 0  9991,2 52601  53.2154 152.4649 0001845  48.1130 312.0020 15.08853030 21781,6917.840999999999,95.437,540.982,538.429,0.0
